{"fetched_at":"2026-07-10T18:07:52.116Z","source":"https://celestrak.org/NORAD/elements/gp.php?GROUP=oneweb&FORMAT=JSON","constellation":"oneweb","records":[{"OBJECT_NAME":"ONEWEB-0120","OBJECT_ID":"2020-100J","EPOCH":"2026-07-09T17:15:16.450560","CLASSIFICATION_TYPE":"U","MEAN_MOTION":13.12443624,"ECCENTRICITY":0.00020248,"INCLINATION":87.8956,"RA_OF_ASC_NODE":346.1888,"ARG_OF_PERICENTER":96.3181,"MEAN_ANOMALY":263.8179,"EPHEMERIS_TYPE":0,"NORAD_CAT_ID":47266,"ELEMENT_SET_NO":999,"REV_AT_EPOCH":26768,"BSTAR":0.001042447,"MEAN_MOTION_DOT":0.00000388,"MEAN_MOTION_DDOT":0},{"OBJECT_NAME":"ONEWEB-0121","OBJECT_ID":"2020-100K","EPOCH":"2026-07-09T09:38:51.916992","CLASSIFICATION_TYPE":"U","MEAN_MOTION":13.12443336,"ECCENTRICITY":0.00015208,"INCLINATION":87.8961,"RA_OF_ASC_NODE":346.2403,"ARG_OF_PERICENTER":96.464,"MEAN_ANOMALY":263.6662,"EPHEMERIS_TYPE":0,"NORAD_CAT_ID":47267,"ELEMENT_SET_NO":999,"REV_AT_EPOCH":26755,"BSTAR":-0.000011423848,"MEAN_MOTION_DOT":9e-8,"MEAN_MOTION_DDOT":0},{"OBJECT_NAME":"ONEWEB-0122","OBJECT_ID":"2020-100L","EPOCH":"2026-07-09T11:20:05.935488","CLASSIFICATION_TYPE":"U","MEAN_MOTION":13.1244444,"ECCENTRICITY":0.00019354,"INCLINATION":87.896,"RA_OF_ASC_NODE":346.2314,"ARG_OF_PERICENTER":100.7175,"MEAN_ANOMALY":259.4172,"EPHEMERIS_TYPE":0,"NORAD_CAT_ID":47268,"ELEMENT_SET_NO":999,"REV_AT_EPOCH":26747,"BSTAR":-0.00099360409,"MEAN_MOTION_DOT":-0.00000345,"MEAN_MOTION_DDOT":0},{"OBJECT_NAME":"ONEWEB-0123","OBJECT_ID":"2020-100M","EPOCH":"2026-07-09T09:24:13.408704","CLASSIFICATION_TYPE":"U","MEAN_MOTION":13.12443387,"ECCENTRICITY":0.00018812,"INCLINATION":87.8949,"RA_OF_ASC_NODE":346.2523,"ARG_OF_PERICENTER":92.5658,"MEAN_ANOMALY":267.5686,"EPHEMERIS_TYPE":0,"NORAD_CAT_ID":47269,"ELEMENT_SET_NO":999,"REV_AT_EPOCH":26760,"BSTAR":-0.00081487477,"MEAN_MOTION_DOT":-0.0000028,"MEAN_MOTION_DDOT":0},{"OBJECT_NAME":"ONEWEB-0124","OBJECT_ID":"2020-100N","EPOCH":"2026-07-09T16:28:42.771360","CLASSIFICATION_TYPE":"U","MEAN_MOTION":13.12442316,"ECCENTRICITY":0.00017246,"INCLINATION":87.895,"RA_OF_ASC_NODE":346.1959,"ARG_OF_PERICENTER":93.9916,"MEAN_ANOMALY":266.1409,"EPHEMERIS_TYPE":0,"NORAD_CAT_ID":47270,"ELEMENT_SET_NO":999,"REV_AT_EPOCH":26752,"BSTAR":-0.00099826098,"MEAN_MOTION_DOT":-0.00000346,"MEAN_MOTION_DDOT":0},{"OBJECT_NAME":"ONEWEB-0125","OBJECT_ID":"2020-100P","EPOCH":"2026-07-09T15:57:00.487872","CLASSIFICATION_TYPE":"U","MEAN_MOTION":13.12442056,"ECCENTRICITY":0.00016434,"INCLINATION":87.8962,"RA_OF_ASC_NODE":346.1859,"ARG_OF_PERICENTER":86.7941,"MEAN_ANOMALY":273.3376,"EPHEMERIS_TYPE":0,"NORAD_CAT_ID":47271,"ELEMENT_SET_NO":999,"REV_AT_EPOCH":26758,"BSTAR":0.00085859313,"MEAN_MOTION_DOT":0.00000322,"MEAN_MOTION_DDOT":0},{"OBJECT_NAME":"ONEWEB-0126","OBJECT_ID":"2020-100Q","EPOCH":"2026-07-09T10:57:08.653824","CLASSIFICATION_TYPE":"U","MEAN_MOTION":13.12441446,"ECCENTRICITY":0.00018884,"INCLINATION":87.8963,"RA_OF_ASC_NODE":346.2407,"ARG_OF_PERICENTER":95.1256,"MEAN_ANOMALY":265.0088,"EPHEMERIS_TYPE":0,"NORAD_CAT_ID":47272,"ELEMENT_SET_NO":999,"REV_AT_EPOCH":26762,"BSTAR":-0.0015875863,"MEAN_MOTION_DOT":-0.00000558,"MEAN_MOTION_DDOT":0},{"OBJECT_NAME":"ONEWEB-0127","OBJECT_ID":"2020-100R","EPOCH":"2026-07-08T19:29:54.102336","CLASSIFICATION_TYPE":"U","MEAN_MOTION":13.12442873,"ECCENTRICITY":0.00019818,"INCLINATION":87.8953,"RA_OF_ASC_NODE":346.3671,"ARG_OF_PERICENTER":96.5027,"MEAN_ANOMALY":263.6328,"EPHEMERIS_TYPE":0,"NORAD_CAT_ID":47273,"ELEMENT_SET_NO":999,"REV_AT_EPOCH":26756,"BSTAR":0.0011958898,"MEAN_MOTION_DOT":0.00000443,"MEAN_MOTION_DDOT":0},{"OBJECT_NAME":"ONEWEB-0128","OBJECT_ID":"2020-100S","EPOCH":"2026-07-09T16:09:12.254400","CLASSIFICATION_TYPE":"U","MEAN_MOTION":13.12441658,"ECCENTRICITY":0.00017179,"INCLINATION":87.8955,"RA_OF_ASC_NODE":346.2097,"ARG_OF_PERICENTER":105.7917,"MEAN_ANOMALY":254.3401,"EPHEMERIS_TYPE":0,"NORAD_CAT_ID":47274,"ELEMENT_SET_NO":999,"REV_AT_EPOCH":26769,"BSTAR":-0.000021342131,"MEAN_MOTION_DOT":5e-8,"MEAN_MOTION_DDOT":0},{"OBJECT_NAME":"ONEWEB-0129","OBJECT_ID":"2020-100T","EPOCH":"2026-07-09T17:29:42.976896","CLASSIFICATION_TYPE":"U","MEAN_MOTION":13.12442725,"ECCENTRICITY":0.00028982,"INCLINATION":87.8959,"RA_OF_ASC_NODE":346.1747,"ARG_OF_PERICENTER":97.6796,"MEAN_ANOMALY":262.4662,"EPHEMERIS_TYPE":0,"NORAD_CAT_ID":47275,"ELEMENT_SET_NO":999,"REV_AT_EPOCH":26763,"BSTAR":0.001341163,"MEAN_MOTION_DOT":0.00000495,"MEAN_MOTION_DDOT":0},{"OBJECT_NAME":"ONEWEB-0130","OBJECT_ID":"2020-100U","EPOCH":"2026-07-09T16:18:57.767328","CLASSIFICATION_TYPE":"U","MEAN_MOTION":13.12441614,"ECCENTRICITY":0.00018578,"INCLINATION":87.8963,"RA_OF_ASC_NODE":346.1802,"ARG_OF_PERICENTER":98.4649,"MEAN_ANOMALY":261.669,"EPHEMERIS_TYPE":0,"NORAD_CAT_ID":47276,"ELEMENT_SET_NO":999,"REV_AT_EPOCH":26759,"BSTAR":-0.00063149673,"MEAN_MOTION_DOT":-0.00000214,"MEAN_MOTION_DDOT":0},{"OBJECT_NAME":"ONEWEB-0131","OBJECT_ID":"2020-100V","EPOCH":"2026-07-09T16:14:05.168544","CLASSIFICATION_TYPE":"U","MEAN_MOTION":13.12441343,"ECCENTRICITY":0.0001765,"INCLINATION":87.8952,"RA_OF_ASC_NODE":346.197,"ARG_OF_PERICENTER":99.6175,"MEAN_ANOMALY":260.5153,"EPHEMERIS_TYPE":0,"NORAD_CAT_ID":47277,"ELEMENT_SET_NO":999,"REV_AT_EPOCH":26763,"BSTAR":-0.00029605723,"MEAN_MOTION_DOT":-9.4e-7,"MEAN_MOTION_DDOT":0},{"OBJECT_NAME":"ONEWEB-0132","OBJECT_ID":"2020-100W","EPOCH":"2026-07-09T11:26:12.369120","CLASSIFICATION_TYPE":"U","MEAN_MOTION":13.12443573,"ECCENTRICITY":0.00018148,"INCLINATION":87.8954,"RA_OF_ASC_NODE":346.2391,"ARG_OF_PERICENTER":97.8786,"MEAN_ANOMALY":262.2548,"EPHEMERIS_TYPE":0,"NORAD_CAT_ID":47278,"ELEMENT_SET_NO":999,"REV_AT_EPOCH":26750,"BSTAR":-0.00028680525,"MEAN_MOTION_DOT":-9e-7,"MEAN_MOTION_DDOT":0},{"OBJECT_NAME":"ONEWEB-0133","OBJECT_ID":"2020-100X","EPOCH":"2026-07-09T17:19:45.191712","CLASSIFICATION_TYPE":"U","MEAN_MOTION":13.12443976,"ECCENTRICITY":0.00017678,"INCLINATION":87.8968,"RA_OF_ASC_NODE":346.1685,"ARG_OF_PERICENTER":99.4588,"MEAN_ANOMALY":260.6741,"EPHEMERIS_TYPE":0,"NORAD_CAT_ID":47279,"ELEMENT_SET_NO":999,"REV_AT_EPOCH":26769,"BSTAR":0.0010677819,"MEAN_MOTION_DOT":0.00000397,"MEAN_MOTION_DDOT":0},{"OBJECT_NAME":"ONEWEB-0134","OBJECT_ID":"2020-100Y","EPOCH":"2026-07-09T16:36:01.836288","CLASSIFICATION_TYPE":"U","MEAN_MOTION":13.12441743,"ECCENTRICITY":0.00019775,"INCLINATION":87.8966,"RA_OF_ASC_NODE":346.1718,"ARG_OF_PERICENTER":102.538,"MEAN_ANOMALY":257.5969,"EPHEMERIS_TYPE":0,"NORAD_CAT_ID":47280,"ELEMENT_SET_NO":999,"REV_AT_EPOCH":26766,"BSTAR":-0.00124293,"MEAN_MOTION_DOT":-0.00000434,"MEAN_MOTION_DDOT":0},{"OBJECT_NAME":"ONEWEB-0135","OBJECT_ID":"2020-100Z","EPOCH":"2026-07-09T12:15:00.318240","CLASSIFICATION_TYPE":"U","MEAN_MOTION":13.12442041,"ECCENTRICITY":0.00018787,"INCLINATION":87.8952,"RA_OF_ASC_NODE":346.2275,"ARG_OF_PERICENTER":105.7814,"MEAN_ANOMALY":254.3522,"EPHEMERIS_TYPE":0,"NORAD_CAT_ID":47281,"ELEMENT_SET_NO":999,"REV_AT_EPOCH":26766,"BSTAR":0.00074679679,"MEAN_MOTION_DOT":0.00000281,"MEAN_MOTION_DDOT":0}]}
